{
"type": "FeatureCollection",
"name": "winksele_fields",
"crs": { "type": "name", "properties": { "name": "urn:ogc:def:crs:OGC:1.3:CRS84" } },
"features": [
{ "type": "Feature", "properties": { "source": "Ferraris KBR sheet 93 via histcart WMS", "method": "manual raster interpretation", "landuse": "grass" }, "geometry": { "type": "Polygon", "coordinates": [ [ [ 4.6368509911479, 50.902346826708481 ], [ 4.638253162031698, 50.902343608708009 ], [ 4.637765546739381, 50.902046252575737 ], [ 4.6368337413408, 50.901758690704078 ], [ 4.6368509911479, 50.902346826708481 ] ] ] } },
{ "type": "Feature", "properties": { "source": "Ferraris KBR sheet 93 via histcart WMS", "method": "manual raster interpretation", "landuse": "soil" }, "geometry": { "type": "Polygon", "coordinates": [ [ [ 4.638778534924769, 50.901964912872181 ], [ 4.641542687978665, 50.902213091123464 ], [ 4.643612158019984, 50.902366270418952 ], [ 4.643926306427955, 50.901487658608289 ], [ 4.643422567782742, 50.900812877707779 ], [ 4.642934318955877, 50.900410199407958 ], [ 4.641229859740743, 50.900940901730287 ], [ 4.640067241881981, 50.901549333899077 ], [ 4.638778534924769, 50.901964912872181 ] ] ] } },
{ "type": "Feature", "properties": { "source": "Ferraris KBR sheet 93 via histcart WMS", "method": "manual raster interpretation", "landuse": "crop" }, "geometry": { "type": "Polygon", "coordinates": [ [ [ 4.636900842707074, 50.901354715057394 ], [ 4.638305813459899, 50.901843099413853 ], [ 4.639188884119479, 50.900901738413559 ], [ 4.640004186317515, 50.900250225988131 ], [ 4.637991409972721, 50.900281206558205 ], [ 4.636825751510866, 50.900362889141846 ], [ 4.636900842707074, 50.901354715057394 ] ] ] } },
{ "type": "Feature", "properties": { "source": "Ferraris KBR sheet 93 via histcart WMS", "method": "manual raster interpretation", "landuse": "grass" }, "geometry": { "type": "Polygon", "coordinates": [ [ [ 4.636852209496862, 50.900134581252651 ], [ 4.64001705166565, 50.900074621293577 ], [ 4.641359640139885, 50.899386761789955 ], [ 4.642162233982322, 50.898945953520176 ], [ 4.641464000080153, 50.898236502718518 ], [ 4.640064291262287, 50.898643576114416 ], [ 4.636875450725814, 50.899344441031069 ], [ 4.636852209496862, 50.900134581252651 ] ] ] } },
{ "type": "Feature", "properties": { "source": "Ferraris KBR sheet 93 via histcart WMS", "method": "manual raster interpretation", "landuse": "soil" }, "geometry": { "type": "Polygon", "coordinates": [ [ [ 4.640203015407891, 50.901022294780951 ], [ 4.64113115086657, 50.900677769014614 ], [ 4.642835550273203, 50.900138289458248 ], [ 4.644069055606542, 50.899793025289775 ], [ 4.644081802417668, 50.899599862873053 ], [ 4.643150932636212, 50.899470366217223 ], [ 4.642926456337436, 50.899067069485739 ], [ 4.642315344761885, 50.899015825983071 ], [ 4.641415525893027, 50.899448082929545 ], [ 4.640322562020163, 50.900091470788333 ], [ 4.640203015407891, 50.901022294780951 ] ] ] } },
{ "type": "Feature", "properties": { "source": "Ferraris KBR sheet 93 via histcart WMS", "method": "manual raster interpretation", "landuse": "crop" }, "geometry": { "type": "Polygon", "coordinates": [ [ [ 4.636983188366417, 50.898764797062363 ], [ 4.638730880870773, 50.898514976285121 ], [ 4.640657589540315, 50.898018908943499 ], [ 4.639405201845873, 50.897495084854533 ], [ 4.636817926868012, 50.896570487967885 ], [ 4.636983188366417, 50.898764797062363 ] ] ] } },
{ "type": "Feature", "properties": { "source": "Ferraris KBR sheet 93 via histcart WMS", "method": "manual raster interpretation", "landuse": "grass" }, "geometry": { "type": "Polygon", "coordinates": [ [ [ 4.644753883537295, 50.900572721981085 ], [ 4.646298933987701, 50.901262591913593 ], [ 4.647551708101707, 50.901821456365148 ], [ 4.648173026212906, 50.901249357440776 ], [ 4.647685568586669, 50.900987156895425 ], [ 4.647930482111875, 50.900152592413527 ], [ 4.647345235611307, 50.899785278455312 ], [ 4.646675612337948, 50.899233808057765 ], [ 4.64593758290075, 50.898849291970535 ], [ 4.644753883537295, 50.900572721981085 ] ] ] } },
{ "type": "Feature", "properties": { "source": "Ferraris KBR sheet 93 via histcart WMS", "method": "manual raster interpretation", "landuse": "soil" }, "geometry": { "type": "Polygon", "coordinates": [ [ [ 4.649111732226889, 50.900360460916986 ], [ 4.650042952412004, 50.900542582012456 ], [ 4.650605789200606, 50.89948777902967 ], [ 4.650921321076707, 50.898863727923285 ], [ 4.648741084610973, 50.898737278694554 ], [ 4.647172231732682, 50.898705903528565 ], [ 4.646951791463585, 50.898987347378039 ], [ 4.647816652220717, 50.899687589979919 ], [ 4.649111732226889, 50.900360460916986 ] ] ] } },
{ "type": "Feature", "properties": { "source": "Ferraris KBR sheet 93 via histcart WMS", "method": "manual raster interpretation", "landuse": "crop" }, "geometry": { "type": "Polygon", "coordinates": [ [ [ 4.64570488433904, 50.897058976821782 ], [ 4.647758795338788, 50.896966314381409 ], [ 4.650743112123039, 50.896932830904682 ], [ 4.650803955392563, 50.895510525316048 ], [ 4.645597338096233, 50.895303479575055 ], [ 4.645283676930565, 50.896252326529776 ], [ 4.64570488433904, 50.897058976821782 ] ] ] } },
{ "type": "Feature", "properties": { "source": "Ferraris KBR sheet 93 via histcart WMS", "method": "manual raster interpretation", "landuse": "grass" }, "geometry": { "type": "Polygon", "coordinates": [ [ [ 4.645581537728307, 50.894978702795711 ], [ 4.650774449595198, 50.895220897224014 ], [ 4.650764566786101, 50.89357929207123 ], [ 4.646239594662109, 50.893590100947044 ], [ 4.645581537728307, 50.894978702795711 ] ] ] } },
{ "type": "Feature", "properties": { "source": "Ferraris KBR sheet 93 via histcart WMS", "method": "manual raster interpretation", "landuse": "soil" }, "geometry": { "type": "Polygon", "coordinates": [ [ [ 4.640456300333474, 50.894428865218281 ], [ 4.641208351376477, 50.894857277164832 ], [ 4.642527681371263, 50.894968324169454 ], [ 4.642788076328197, 50.894397095728451 ], [ 4.643355067916453, 50.894035838369646 ], [ 4.643671741461073, 50.893596157250307 ], [ 4.640076695022798, 50.893595763074146 ], [ 4.640456300333474, 50.894428865218281 ] ] ] } },
{ "type": "Feature", "properties": { "source": "Ferraris KBR sheet 93 via histcart WMS", "method": "manual raster interpretation", "landuse": "crop" }, "geometry": { "type": "Polygon", "coordinates": [ [ [ 4.636953621931273, 50.896025894559308 ], [ 4.641265877116819, 50.897587336296908 ], [ 4.641330533267404, 50.896770761790336 ], [ 4.640160236975812, 50.896036064399979 ], [ 4.639016269958161, 50.895046710549323 ], [ 4.636876327022017, 50.894647806872634 ], [ 4.636953621931273, 50.896025894559308 ] ] ] } }
]
}
