{
"type": "FeatureCollection",
"name": "winksele_forest",
"crs": { "type": "name", "properties": { "name": "urn:ogc:def:crs:OGC:1.3:CRS84" } },
"features": [
{ "type": "Feature", "properties": { "source": "Ferraris KBR sheet 93 via histcart WMS", "method": "manual raster interpretation", "landuse": "orchard" }, "geometry": { "type": "Polygon", "coordinates": [ [ [ 4.641882344056026, 50.898560341603961 ], [ 4.64214758347383, 50.898814306483359 ], [ 4.642673604232857, 50.898558493655116 ], [ 4.642449290287067, 50.898181531796752 ], [ 4.641880808291662, 50.898296982680641 ], [ 4.641882344056026, 50.898560341603961 ] ] ] } },
{ "type": "Feature", "properties": { "source": "Ferraris KBR sheet 93 via histcart WMS", "method": "manual raster interpretation", "landuse": "orchard" }, "geometry": { "type": "Polygon", "coordinates": [ [ [ 4.643011649732221, 50.899391683719436 ], [ 4.643317362564038, 50.899443639936301 ], [ 4.643760504700671, 50.899258246539759 ], [ 4.643550369565836, 50.898933926038481 ], [ 4.643023783905969, 50.89909317785358 ], [ 4.643011649732221, 50.899391683719436 ] ] ] } },
{ "type": "Feature", "properties": { "source": "Ferraris KBR sheet 93 via histcart WMS", "method": "manual raster interpretation", "landuse": "orchard" }, "geometry": { "type": "Polygon", "coordinates": [ [ [ 4.638778281845827, 50.901921019756884 ], [ 4.639138219776806, 50.901744614572763 ], [ 4.640037442565488, 50.901198253253902 ], [ 4.639801185365129, 50.901154906532859 ], [ 4.639164059047725, 50.901410962765851 ], [ 4.638778281845827, 50.901921019756884 ] ] ] } },
{ "type": "Feature", "properties": { "source": "Ferraris KBR sheet 93 via histcart WMS", "method": "manual raster interpretation", "landuse": "orchard" }, "geometry": { "type": "Polygon", "coordinates": [ [ [ 4.643162135361473, 50.896643581931002 ], [ 4.643815324569728, 50.896773730972633 ], [ 4.644323197218122, 50.89579809506894 ], [ 4.643891237996937, 50.895518190417256 ], [ 4.643126865222656, 50.895361966052882 ], [ 4.642907238498995, 50.895783860779652 ], [ 4.643162135361473, 50.896643581931002 ] ] ] } },
{ "type": "Feature", "properties": { "source": "Ferraris KBR sheet 93 via histcart WMS", "method": "manual raster interpretation", "landuse": "orchard" }, "geometry": { "type": "Polygon", "coordinates": [ [ [ 4.643971273624488, 50.894964940524957 ], [ 4.644373503809609, 50.894911322011929 ], [ 4.644687950087241, 50.894094156729636 ], [ 4.644368338491585, 50.894033458027025 ], [ 4.643971273624488, 50.894964940524957 ] ] ] } },
{ "type": "Feature", "properties": { "source": "Ferraris KBR sheet 93 via histcart WMS", "method": "manual raster interpretation", "landuse": "orchard" }, "geometry": { "type": "Polygon", "coordinates": [ [ [ 4.645908092600568, 50.900903588836329 ], [ 4.646368086586545, 50.901218534307716 ], [ 4.647397535839223, 50.901576018388369 ], [ 4.648064007517323, 50.901591988517865 ], [ 4.648186385021403, 50.901161538114543 ], [ 4.647546796125109, 50.900996266029672 ], [ 4.647862012607461, 50.90031077305796 ], [ 4.647276816873409, 50.899952237400015 ], [ 4.646792973429309, 50.900295758130348 ], [ 4.645908092600568, 50.900903588836329 ] ] ] } },
{ "type": "Feature", "properties": { "source": "Ferraris KBR sheet 93 via histcart WMS", "method": "manual raster interpretation", "landuse": "orchard" }, "geometry": { "type": "Polygon", "coordinates": [ [ [ 4.644683954597754, 50.900485099283543 ], [ 4.645268567065546, 50.900747082952542 ], [ 4.645766568216682, 50.900447428837161 ], [ 4.646138635183251, 50.899981274671028 ], [ 4.646413468461619, 50.899506571039929 ], [ 4.645940232422106, 50.899297001964428 ], [ 4.645470008704447, 50.89959659132581 ], [ 4.644683954597754, 50.900485099283543 ] ] ] } },
{ "type": "Feature", "properties": { "source": "Ferraris KBR sheet 93 via histcart WMS", "method": "manual raster interpretation", "landuse": "orchard" }, "geometry": { "type": "Polygon", "coordinates": [ [ [ 4.648831962827921, 50.902327569266404 ], [ 4.649207063059705, 50.902370565490507 ], [ 4.649287678695933, 50.901922656511729 ], [ 4.648898699234159, 50.901879693743169 ], [ 4.648831962827921, 50.902327569266404 ] ] ] } }
]
}
