{
"type": "FeatureCollection",
"name": "winksele_roads",
"crs": { "type": "name", "properties": { "name": "urn:ogc:def:crs:OGC:1.3:CRS84" } },
"features": [
{ "type": "Feature", "properties": { "source": "Ferraris KBR sheet 93 via histcart WMS", "method": "manual raster interpretation", "width": 5.0 }, "geometry": { "type": "LineString", "coordinates": [ [ 4.636762971358367, 50.901521826698769 ], [ 4.638487704679237, 50.902088485366157 ], [ 4.639932329446599, 50.902225609352897 ], [ 4.641488025711447, 50.902362456999981 ], [ 4.642238213966431, 50.902448495167093 ] ] } },
{ "type": "Feature", "properties": { "source": "Ferraris KBR sheet 93 via histcart WMS", "method": "manual raster interpretation", "width": 5.0 }, "geometry": { "type": "LineString", "coordinates": [ [ 4.638515419719403, 50.902079642796032 ], [ 4.639858595696349, 50.901479587106252 ], [ 4.641159681530186, 50.90080938381908 ], [ 4.642157166119076, 50.900455909835252 ], [ 4.642975040690966, 50.900252086650248 ], [ 4.643682005180203, 50.90007485437512 ], [ 4.64430515495344, 50.899810027562644 ], [ 4.644857904215209, 50.899378567160127 ], [ 4.645424317768509, 50.89891195679791 ], [ 4.64575618446501, 50.898691703611092 ] ] } },
{ "type": "Feature", "properties": { "source": "Ferraris KBR sheet 93 via histcart WMS", "method": "manual raster interpretation", "width": 5.0 }, "geometry": { "type": "LineString", "coordinates": [ [ 4.642975040690966, 50.900252086650248 ], [ 4.643448787995657, 50.900549453865061 ], [ 4.644061830048012, 50.900925500526036 ], [ 4.644342165215531, 50.901381335956025 ], [ 4.644136610441358, 50.901838314056384 ], [ 4.643848631090872, 50.90244472393502 ] ] } },
{ "type": "Feature", "properties": { "source": "Ferraris KBR sheet 93 via histcart WMS", "method": "manual raster interpretation", "width": 5.0 }, "geometry": { "type": "LineString", "coordinates": [ [ 4.644319037079246, 50.899809994902014 ], [ 4.644625477975184, 50.899984848468563 ], [ 4.644446456523583, 50.900231074908838 ], [ 4.644309390053472, 50.900529874831129 ], [ 4.64501946054328, 50.900879351962175 ], [ 4.645784708305633, 50.901167243083876 ], [ 4.646508473801702, 50.901481563824831 ], [ 4.647204953286413, 50.901874953660688 ], [ 4.647610897668503, 50.902435827486784 ] ] } },
{ "type": "Feature", "properties": { "source": "Ferraris KBR sheet 93 via histcart WMS", "method": "manual raster interpretation", "width": 5.0 }, "geometry": { "type": "LineString", "coordinates": [ [ 4.636749809513546, 50.899221826166219 ], [ 4.638357993973135, 50.898849427711014 ], [ 4.639993865553349, 50.898468164260663 ], [ 4.641671048507549, 50.898034109147687 ], [ 4.6427797277085, 50.897715485278297 ], [ 4.643361773119062, 50.897547325681032 ], [ 4.644500000891225, 50.897535872570955 ], [ 4.645900936786821, 50.897348211967717 ], [ 4.647704577186706, 50.897185912433045 ], [ 4.649342365730801, 50.897146885198573 ], [ 4.650952547566429, 50.897134237903032 ] ] } },
{ "type": "Feature", "properties": { "source": "Ferraris KBR sheet 93 via histcart WMS", "method": "manual raster interpretation", "width": 5.0 }, "geometry": { "type": "LineString", "coordinates": [ [ 4.636732731181236, 50.896237090334132 ], [ 4.638304323768249, 50.896760208697877 ], [ 4.63993193433571, 50.897362185096803 ], [ 4.641198001665465, 50.89785085676597 ], [ 4.641671048507549, 50.898034109147687 ] ] } },
{ "type": "Feature", "properties": { "source": "Ferraris KBR sheet 93 via histcart WMS", "method": "manual raster interpretation", "width": 5.0 }, "geometry": { "type": "LineString", "coordinates": [ [ 4.642793609216142, 50.89771545279801 ], [ 4.64304584116566, 50.89811868492481 ], [ 4.643395404092485, 50.898548024526036 ], [ 4.643869600944829, 50.898924397852298 ], [ 4.644454499481435, 50.899239057461813 ], [ 4.644857904215209, 50.899378567160127 ] ] } },
{ "type": "Feature", "properties": { "source": "Ferraris KBR sheet 93 via histcart WMS", "method": "manual raster interpretation", "width": 5.0 }, "geometry": { "type": "LineString", "coordinates": [ [ 4.644036699270889, 50.899011792718632 ], [ 4.644297976239344, 50.898589798308429 ], [ 4.644419760446376, 50.898054007884994 ], [ 4.644500000891225, 50.897535872570955 ], [ 4.64471801814818, 50.896841837450012 ], [ 4.644949806476932, 50.896130211777376 ], [ 4.645291753347736, 50.895269086506232 ], [ 4.645674447016164, 50.894258624690607 ], [ 4.645988918240226, 50.893450234410317 ] ] } },
{ "type": "Feature", "properties": { "source": "Ferraris KBR sheet 93 via histcart WMS", "method": "manual raster interpretation", "width": 5.0 }, "geometry": { "type": "LineString", "coordinates": [ [ 4.64575618446501, 50.898691703611092 ], [ 4.646284420847605, 50.898813355625897 ], [ 4.646799455559606, 50.899049160368392 ], [ 4.647287723379861, 50.89945182275676 ], [ 4.647929173994376, 50.899933126814886 ], [ 4.64865361680546, 50.900361556550031 ], [ 4.648932260254953, 50.90052768657015 ], [ 4.650182883471033, 50.900726599598244 ], [ 4.65097507903269, 50.9008739322636 ] ] } },
{ "type": "Feature", "properties": { "source": "Ferraris KBR sheet 93 via histcart WMS", "method": "manual raster interpretation", "width": 5.0 }, "geometry": { "type": "LineString", "coordinates": [ [ 4.648932260254953, 50.90052768657015 ], [ 4.648795956291019, 50.900949392401358 ], [ 4.648688464407736, 50.901546604068599 ], [ 4.648485520320894, 50.902433742040166 ] ] } },
{ "type": "Feature", "properties": { "source": "Ferraris KBR sheet 93 via histcart WMS", "method": "manual raster interpretation", "width": 5.0 }, "geometry": { "type": "LineString", "coordinates": [ [ 4.650224372385556, 50.900700163663124 ], [ 4.650498376487532, 50.900093771232633 ], [ 4.650841942247037, 50.899513546784235 ], [ 4.650965769822358, 50.899328894716028 ] ] } },
{ "type": "Feature", "properties": { "source": "Ferraris KBR sheet 93 via histcart WMS", "method": "manual raster interpretation", "width": 5.0 }, "geometry": { "type": "LineString", "coordinates": [ [ 4.643361773119062, 50.897547325681032 ], [ 4.643191749407134, 50.896959547716321 ], [ 4.642937878028746, 50.896275399430323 ], [ 4.642629722422419, 50.895802067617346 ], [ 4.641975167436953, 50.89543488871341 ], [ 4.641098633154119, 50.895085780102207 ], [ 4.640388373995172, 50.894683606821779 ], [ 4.640038969013664, 50.894271815067242 ], [ 4.639744837701659, 50.893816000536006 ], [ 4.639687285196794, 50.893464983244577 ] ] } },
{ "type": "Feature", "properties": { "source": "Ferraris KBR sheet 93 via histcart WMS", "method": "manual raster interpretation", "width": 5.0 }, "geometry": { "type": "LineString", "coordinates": [ [ 4.642629722422419, 50.895802067617346 ], [ 4.642764731618846, 50.895152123707327 ], [ 4.642970064910539, 50.894660032552984 ], [ 4.643370286442703, 50.894264050490328 ], [ 4.643979738355868, 50.894043150710154 ], [ 4.64410347528415, 50.893840948300692 ], [ 4.644059564051505, 50.893454785949032 ] ] } }
]
}
