{
"type": "FeatureCollection",
"name": "winksele_buildings",
"crs": { "type": "name", "properties": { "name": "urn:ogc:def:crs:OGC:1.3:CRS84" } },
"features": [
{ "type": "Feature", "properties": { "source": "Ferraris KBR sheet 93 via histcart WMS", "method": "manual raster interpretation", "archetype": "house" }, "geometry": { "type": "Polygon", "coordinates": [ [ [ 4.639069874041703, 50.901561095085164 ], [ 4.63920444639094, 50.901515449356303 ], [ 4.639316005169111, 50.901646961558797 ], [ 4.639181432551399, 50.90169260741375 ], [ 4.639069874041703, 50.901561095085164 ] ] ] } },
{ "type": "Feature", "properties": { "source": "Ferraris KBR sheet 93 via histcart WMS", "method": "manual raster interpretation", "archetype": "barn" }, "geometry": { "type": "Polygon", "coordinates": [ [ [ 4.639268927805468, 50.901475361097397 ], [ 4.639409882760051, 50.901419211162683 ], [ 4.639476480011588, 50.9014860603993 ], [ 4.639335524935961, 50.901542210412835 ], [ 4.639268927805468, 50.901475361097397 ] ] ] } },
{ "type": "Feature", "properties": { "source": "Ferraris KBR sheet 93 via histcart WMS", "method": "manual raster interpretation", "archetype": "farmhouse" }, "geometry": { "type": "Polygon", "coordinates": [ [ [ 4.639512980936669, 50.901401333190755 ], [ 4.639709331573084, 50.90130359391614 ], [ 4.639786614551797, 50.901365674787634 ], [ 4.639590263816645, 50.901463414189699 ], [ 4.639512980936669, 50.901401333190755 ] ] ] } },
{ "type": "Feature", "properties": { "source": "Ferraris KBR sheet 93 via histcart WMS", "method": "manual raster interpretation", "archetype": "house" }, "geometry": { "type": "Polygon", "coordinates": [ [ [ 4.643498001117054, 50.900641597131084 ], [ 4.643717424883569, 50.900749176919284 ], [ 4.643623855994408, 50.900825491742964 ], [ 4.643404432085641, 50.90071791178233 ], [ 4.643498001117054, 50.900641597131084 ] ] ] } },
{ "type": "Feature", "properties": { "source": "Ferraris KBR sheet 93 via histcart WMS", "method": "manual raster interpretation", "archetype": "barn" }, "geometry": { "type": "Polygon", "coordinates": [ [ [ 4.643758961404797, 50.901088467789386 ], [ 4.643948881180775, 50.901034462161661 ], [ 4.644005817664365, 50.901114526191904 ], [ 4.643815897630029, 50.901168531910436 ], [ 4.643758961404797, 50.901088467789386 ] ] ] } },
{ "type": "Feature", "properties": { "source": "Ferraris KBR sheet 93 via histcart WMS", "method": "manual raster interpretation", "archetype": "farmhouse" }, "geometry": { "type": "Polygon", "coordinates": [ [ [ 4.643855907636969, 50.901290299989185 ], [ 4.64409703868284, 50.901248835475144 ], [ 4.644133467944373, 50.901333545984585 ], [ 4.643892336495635, 50.901375010572366 ], [ 4.643855907636969, 50.901290299989185 ] ] ] } },
{ "type": "Feature", "properties": { "source": "Ferraris KBR sheet 93 via histcart WMS", "method": "manual raster interpretation", "archetype": "house" }, "geometry": { "type": "Polygon", "coordinates": [ [ [ 4.64442127277016, 50.901387400710824 ], [ 4.644551903268947, 50.901417118262927 ], [ 4.644486109378747, 50.901532763653641 ], [ 4.644355478599856, 50.901503046029333 ], [ 4.64442127277016, 50.901387400710824 ] ] ] } },
{ "type": "Feature", "properties": { "source": "Ferraris KBR sheet 93 via histcart WMS", "method": "manual raster interpretation", "archetype": "barn" }, "geometry": { "type": "Polygon", "coordinates": [ [ [ 4.644608647453088, 50.901504388589039 ], [ 4.644730763979004, 50.901487674092039 ], [ 4.644771881483933, 50.901607793898982 ], [ 4.644649764660241, 50.901624508438154 ], [ 4.644608647453088, 50.901504388589039 ] ] ] } },
{ "type": "Feature", "properties": { "source": "Ferraris KBR sheet 93 via histcart WMS", "method": "manual raster interpretation", "archetype": "farmhouse" }, "geometry": { "type": "Polygon", "coordinates": [ [ [ 4.644913934961056, 50.901602589503582 ], [ 4.645076757171918, 50.901580303056662 ], [ 4.645106127487027, 50.901666102831783 ], [ 4.644943304992571, 50.901688389318878 ], [ 4.644913934961056, 50.901602589503582 ] ] ] } },
{ "type": "Feature", "properties": { "source": "Ferraris KBR sheet 93 via histcart WMS", "method": "manual raster interpretation", "archetype": "house" }, "geometry": { "type": "Polygon", "coordinates": [ [ [ 4.648193666218285, 50.902001663899249 ], [ 4.648412561619527, 50.902025532091692 ], [ 4.648384252377806, 50.902129344174391 ], [ 4.64816535650697, 50.902105475929922 ], [ 4.648193666218285, 50.902001663899249 ] ] ] } },
{ "type": "Feature", "properties": { "source": "Ferraris KBR sheet 93 via histcart WMS", "method": "manual raster interpretation", "archetype": "barn" }, "geometry": { "type": "Polygon", "coordinates": [ [ [ 4.648210727707298, 50.901533377525951 ], [ 4.648349179302675, 50.90152692337994 ], [ 4.648361427495645, 50.901631982466455 ], [ 4.648222975592159, 50.901638436626754 ], [ 4.648210727707298, 50.901533377525951 ] ] ] } },
{ "type": "Feature", "properties": { "source": "Ferraris KBR sheet 93 via histcart WMS", "method": "manual raster interpretation", "archetype": "farmhouse" }, "geometry": { "type": "Polygon", "coordinates": [ [ [ 4.648342095184071, 50.901354731428611 ], [ 4.648506264508711, 50.901372632407103 ], [ 4.648477955867801, 50.901476444532356 ], [ 4.648313786190974, 50.901458543514821 ], [ 4.648342095184071, 50.901354731428611 ] ] ] } },
{ "type": "Feature", "properties": { "source": "Ferraris KBR sheet 93 via histcart WMS", "method": "manual raster interpretation", "archetype": "house" }, "geometry": { "type": "Polygon", "coordinates": [ [ [ 4.64840153349552, 50.900935267453185 ], [ 4.648636670782226, 50.900988750978811 ], [ 4.648580285177164, 50.901087877575996 ], [ 4.648345147458266, 50.901034393939035 ], [ 4.64840153349552, 50.900935267453185 ] ] ] } },
{ "type": "Feature", "properties": { "source": "Ferraris KBR sheet 93 via histcart WMS", "method": "manual raster interpretation", "archetype": "barn" }, "geometry": { "type": "Polygon", "coordinates": [ [ [ 4.648608278166626, 50.90056794664703 ], [ 4.648791161429099, 50.900609544667979 ], [ 4.648730077859523, 50.900716931905933 ], [ 4.648547194232894, 50.900675333791142 ], [ 4.648608278166626, 50.90056794664703 ] ] ] } },
{ "type": "Feature", "properties": { "source": "Ferraris KBR sheet 93 via histcart WMS", "method": "manual raster interpretation", "archetype": "farmhouse" }, "geometry": { "type": "Polygon", "coordinates": [ [ [ 4.648083711868709, 50.900215211063994 ], [ 4.648247560272246, 50.900263050973479 ], [ 4.648195185421486, 50.900334782168969 ], [ 4.648031336821, 50.900286942187421 ], [ 4.648083711868709, 50.900215211063994 ] ] ] } },
{ "type": "Feature", "properties": { "source": "Ferraris KBR sheet 93 via histcart WMS", "method": "manual raster interpretation", "archetype": "house" }, "geometry": { "type": "Polygon", "coordinates": [ [ [ 4.648077929857591, 50.89971688257377 ], [ 4.648232620382566, 50.899755976497396 ], [ 4.648139888376171, 50.899902708992151 ], [ 4.647985197444995, 50.899863614948032 ], [ 4.648077929857591, 50.89971688257377 ] ] ] } },
{ "type": "Feature", "properties": { "source": "Ferraris KBR sheet 93 via histcart WMS", "method": "manual raster interpretation", "archetype": "barn" }, "geometry": { "type": "Polygon", "coordinates": [ [ [ 4.647872855650542, 50.899493335662214 ], [ 4.648053326896306, 50.899538945538112 ], [ 4.647981201950115, 50.899653070715829 ], [ 4.647800730335762, 50.899607460730593 ], [ 4.647872855650542, 50.899493335662214 ] ] ] } },
{ "type": "Feature", "properties": { "source": "Ferraris KBR sheet 93 via histcart WMS", "method": "manual raster interpretation", "archetype": "farmhouse" }, "geometry": { "type": "Polygon", "coordinates": [ [ [ 4.648147041239604, 50.899552488559607 ], [ 4.648283843688427, 50.899567406292817 ], [ 4.648262612666898, 50.899645265388777 ], [ 4.648125809997976, 50.899630347631174 ], [ 4.648147041239604, 50.899552488559607 ] ] ] } },
{ "type": "Feature", "properties": { "source": "Ferraris KBR sheet 93 via histcart WMS", "method": "manual raster interpretation", "archetype": "house" }, "geometry": { "type": "Polygon", "coordinates": [ [ [ 4.644973054743074, 50.899425240529467 ], [ 4.645220856264836, 50.899522348454425 ], [ 4.645133107097957, 50.899611893163481 ], [ 4.644885305285098, 50.899514785055899 ], [ 4.644973054743074, 50.899425240529467 ] ] ] } },
{ "type": "Feature", "properties": { "source": "Ferraris KBR sheet 93 via histcart WMS", "method": "manual raster interpretation", "archetype": "barn" }, "geometry": { "type": "Polygon", "coordinates": [ [ [ 4.645601061331467, 50.898888497212603 ], [ 4.645786119926799, 50.89892603860099 ], [ 4.645692831854416, 50.899109939148353 ], [ 4.64550777260888, 50.899072397614951 ], [ 4.645601061331467, 50.898888497212603 ] ] ] } },
{ "type": "Feature", "properties": { "source": "Ferraris KBR sheet 93 via histcart WMS", "method": "manual raster interpretation", "archetype": "farmhouse" }, "geometry": { "type": "Polygon", "coordinates": [ [ [ 4.645302237082045, 50.899215311465795 ], [ 4.645423038271189, 50.899235475139406 ], [ 4.64538406710584, 50.899328843020179 ], [ 4.645263265693223, 50.899308679307019 ], [ 4.645302237082045, 50.899215311465795 ] ] ] } },
{ "type": "Feature", "properties": { "source": "Ferraris KBR sheet 93 via histcart WMS", "method": "manual raster interpretation", "archetype": "house" }, "geometry": { "type": "Polygon", "coordinates": [ [ [ 4.644322499111173, 50.899438158091591 ], [ 4.644493178491223, 50.899528042323013 ], [ 4.644395458578542, 50.899602246366356 ], [ 4.644224779115823, 50.899512361994837 ], [ 4.644322499111173, 50.899438158091591 ] ] ] } },
{ "type": "Feature", "properties": { "source": "Ferraris KBR sheet 93 via histcart WMS", "method": "manual raster interpretation", "archetype": "barn" }, "geometry": { "type": "Polygon", "coordinates": [ [ [ 4.644387038592282, 50.899285346896178 ], [ 4.644543662391074, 50.899342040065775 ], [ 4.644440218718399, 50.899456322891623 ], [ 4.644283594663297, 50.899399629585965 ], [ 4.644387038592282, 50.899285346896178 ] ] ] } },
{ "type": "Feature", "properties": { "source": "Ferraris KBR sheet 93 via histcart WMS", "method": "manual raster interpretation", "archetype": "farmhouse" }, "geometry": { "type": "Polygon", "coordinates": [ [ [ 4.64405010628296, 50.899278875606257 ], [ 4.644184329417119, 50.899301281111349 ], [ 4.644138269593181, 50.899411624480756 ], [ 4.644004046165579, 50.899389218923751 ], [ 4.64405010628296, 50.899278875606257 ] ] ] } },
{ "type": "Feature", "properties": { "source": "Ferraris KBR sheet 93 via histcart WMS", "method": "manual raster interpretation", "archetype": "house" }, "geometry": { "type": "Polygon", "coordinates": [ [ [ 4.643869007581003, 50.899038184075202 ], [ 4.644034143075781, 50.899084214367804 ], [ 4.643955754824472, 50.899196675594695 ], [ 4.643790619011023, 50.899150645193345 ], [ 4.643869007581003, 50.899038184075202 ] ] ] } },
{ "type": "Feature", "properties": { "source": "Ferraris KBR sheet 93 via histcart WMS", "method": "manual raster interpretation", "archetype": "barn" }, "geometry": { "type": "Polygon", "coordinates": [ [ [ 4.643323133170983, 50.89864057064824 ], [ 4.643503076574672, 50.898574308032366 ], [ 4.643635801043029, 50.898718446396963 ], [ 4.643455857274273, 50.898784709213452 ], [ 4.643323133170983, 50.89864057064824 ] ] ] } },
{ "type": "Feature", "properties": { "source": "Ferraris KBR sheet 93 via histcart WMS", "method": "manual raster interpretation", "archetype": "farmhouse" }, "geometry": { "type": "Polygon", "coordinates": [ [ [ 4.643046865195471, 50.898314262145945 ], [ 4.643221077333577, 50.898242135251721 ], [ 4.643380754272023, 50.898396373023964 ], [ 4.643206541806954, 50.898468500151878 ], [ 4.643046865195471, 50.898314262145945 ] ] ] } },
{ "type": "Feature", "properties": { "source": "Ferraris KBR sheet 93 via histcart WMS", "method": "manual raster interpretation", "archetype": "house" }, "geometry": { "type": "Polygon", "coordinates": [ [ [ 4.643218575764064, 50.897761804214007 ], [ 4.643352794164961, 50.897784210679617 ], [ 4.643313820087586, 50.897877577912993 ], [ 4.643179601438406, 50.897855171403428 ], [ 4.643218575764064, 50.897761804214007 ] ] ] } },
{ "type": "Feature", "properties": { "source": "Ferraris KBR sheet 93 via histcart WMS", "method": "manual raster interpretation", "archetype": "barn" }, "geometry": { "type": "Polygon", "coordinates": [ [ [ 4.64257993602, 50.897849549161222 ], [ 4.642801123974742, 50.897836789904126 ], [ 4.642814995269257, 50.897932956253122 ], [ 4.642593806865295, 50.89794571553599 ], [ 4.64257993602, 50.897849549161222 ] ] ] } },
{ "type": "Feature", "properties": { "source": "Ferraris KBR sheet 93 via histcart WMS", "method": "manual raster interpretation", "archetype": "church" }, "geometry": { "type": "Polygon", "coordinates": [ [ [ 4.643696522168312, 50.898080102521035 ], [ 4.644127571565385, 50.898178172646666 ], [ 4.644061781168377, 50.898293817909597 ], [ 4.643630730847099, 50.898195747545735 ], [ 4.643696522168312, 50.898080102521035 ] ] ] } },
{ "type": "Feature", "properties": { "source": "Ferraris KBR sheet 93 via histcart WMS", "method": "manual raster interpretation", "archetype": "house" }, "geometry": { "type": "Polygon", "coordinates": [ [ [ 4.644502096220225, 50.898834847412779 ], [ 4.64463691618634, 50.898855767637201 ], [ 4.644597218298845, 50.898958076944567 ], [ 4.64446239805666, 50.898937156675181 ], [ 4.644502096220225, 50.898834847412779 ] ] ] } },
{ "type": "Feature", "properties": { "source": "Ferraris KBR sheet 93 via histcart WMS", "method": "manual raster interpretation", "archetype": "barn" }, "geometry": { "type": "Polygon", "coordinates": [ [ [ 4.644459668778651, 50.898647305465389 ], [ 4.644605070471903, 50.898676803710707 ], [ 4.644554183906416, 50.898777112606098 ], [ 4.644408781934513, 50.898747614298642 ], [ 4.644459668778651, 50.898647305465389 ] ] ] } },
{ "type": "Feature", "properties": { "source": "Ferraris KBR sheet 93 via histcart WMS", "method": "manual raster interpretation", "archetype": "farmhouse" }, "geometry": { "type": "Polygon", "coordinates": [ [ [ 4.644416514369587, 50.898380010029079 ], [ 4.64457757927245, 50.89840689612123 ], [ 4.644538607113631, 50.89850026374409 ], [ 4.64437754191282, 50.898473377599238 ], [ 4.644416514369587, 50.898380010029079 ] ] ] } },
{ "type": "Feature", "properties": { "source": "Ferraris KBR sheet 93 via histcart WMS", "method": "manual raster interpretation", "archetype": "house" }, "geometry": { "type": "Polygon", "coordinates": [ [ [ 4.64454490826412, 50.897959622657567 ], [ 4.644780073747142, 50.897972075675163 ], [ 4.644766173840902, 50.898077052593415 ], [ 4.644531007835819, 50.898064599548363 ], [ 4.64454490826412, 50.897959622657567 ] ] ] } },
{ "type": "Feature", "properties": { "source": "Ferraris KBR sheet 93 via histcart WMS", "method": "manual raster interpretation", "archetype": "barn" }, "geometry": { "type": "Polygon", "coordinates": [ [ [ 4.644645275046097, 50.897707231417421 ], [ 4.644797440131962, 50.897715289176645 ], [ 4.644774273778417, 50.897890250720977 ], [ 4.644622108129552, 50.897882192932123 ], [ 4.644645275046097, 50.897707231417421 ] ] ] } },
{ "type": "Feature", "properties": { "source": "Ferraris KBR sheet 93 via histcart WMS", "method": "manual raster interpretation", "archetype": "farmhouse" }, "geometry": { "type": "Polygon", "coordinates": [ [ [ 4.644028495798853, 50.89761599052818 ], [ 4.644306125342355, 50.89761533765747 ], [ 4.644306641788633, 50.897703123974395 ], [ 4.6440290117261, 50.897703776846313 ], [ 4.644028495798853, 50.89761599052818 ] ] ] } },
{ "type": "Feature", "properties": { "source": "Ferraris KBR sheet 93 via histcart WMS", "method": "manual raster interpretation", "archetype": "house" }, "geometry": { "type": "Polygon", "coordinates": [ [ [ 4.643764773497032, 50.897620999463307 ], [ 4.643931351244034, 50.897620608193812 ], [ 4.643931815415066, 50.897699615880519 ], [ 4.643765237387788, 50.897700007150668 ], [ 4.643764773497032, 50.897620999463307 ] ] ] } },
{ "type": "Feature", "properties": { "source": "Ferraris KBR sheet 93 via histcart WMS", "method": "manual raster interpretation", "archetype": "barn" }, "geometry": { "type": "Polygon", "coordinates": [ [ [ 4.643126122593262, 50.897604939875713 ], [ 4.643403752083987, 50.897604289138727 ], [ 4.643404215367136, 50.8976832968279 ], [ 4.643126585409284, 50.897683947565959 ], [ 4.643126122593262, 50.897604939875713 ] ] ] } },
{ "type": "Feature", "properties": { "source": "Ferraris KBR sheet 93 via histcart WMS", "method": "manual raster interpretation", "archetype": "farmhouse" }, "geometry": { "type": "Polygon", "coordinates": [ [ [ 4.642854149505628, 50.897386107893446 ], [ 4.643062370656855, 50.897385620384547 ], [ 4.643062833363445, 50.897464628080115 ], [ 4.642854611861878, 50.897465115589824 ], [ 4.642854149505628, 50.897386107893446 ] ] ] } },
{ "type": "Feature", "properties": { "source": "Ferraris KBR sheet 93 via histcart WMS", "method": "manual raster interpretation", "archetype": "house" }, "geometry": { "type": "Polygon", "coordinates": [ [ [ 4.642790732981392, 50.897223849358618 ], [ 4.643123885671129, 50.897223069347014 ], [ 4.643124502749459, 50.897328412945427 ], [ 4.642791349312335, 50.897329192958743 ], [ 4.642790732981392, 50.897223849358618 ] ] ] } },
{ "type": "Feature", "properties": { "source": "Ferraris KBR sheet 93 via histcart WMS", "method": "manual raster interpretation", "archetype": "barn" }, "geometry": { "type": "Polygon", "coordinates": [ [ [ 4.64342279825691, 50.89730137748186 ], [ 4.643714307333108, 50.897300693454156 ], [ 4.643714822669509, 50.897388479781789 ], [ 4.643423313048338, 50.897389163810757 ], [ 4.64342279825691, 50.89730137748186 ] ] ] } },
{ "type": "Feature", "properties": { "source": "Ferraris KBR sheet 93 via histcart WMS", "method": "manual raster interpretation", "archetype": "farmhouse" }, "geometry": { "type": "Polygon", "coordinates": [ [ [ 4.64344878483174, 50.896998449515934 ], [ 4.643712529437333, 50.89699783060648 ], [ 4.643713096300162, 50.897094395575337 ], [ 4.643449351152195, 50.897095014486034 ], [ 4.64344878483174, 50.896998449515934 ] ] ] } },
{ "type": "Feature", "properties": { "source": "Ferraris KBR sheet 93 via histcart WMS", "method": "manual raster interpretation", "archetype": "house" }, "geometry": { "type": "Polygon", "coordinates": [ [ [ 4.643363774376191, 50.896757762596394 ], [ 4.643668098006863, 50.896773881243746 ], [ 4.643656512979923, 50.896861361930327 ], [ 4.643352188786278, 50.896845243253331 ], [ 4.643363774376191, 50.896757762596394 ] ] ] } },
{ "type": "Feature", "properties": { "source": "Ferraris KBR sheet 93 via histcart WMS", "method": "manual raster interpretation", "archetype": "barn" }, "geometry": { "type": "Polygon", "coordinates": [ [ [ 4.643984942740682, 50.89729127900474 ], [ 4.644373621412508, 50.897290364946038 ], [ 4.644374447923645, 50.897430823064923 ], [ 4.643985768089212, 50.897431737126325 ], [ 4.643984942740682, 50.89729127900474 ] ] ] } },
{ "type": "Feature", "properties": { "source": "Ferraris KBR sheet 93 via histcart WMS", "method": "manual raster interpretation", "archetype": "farmhouse" }, "geometry": { "type": "Polygon", "coordinates": [ [ [ 4.644042876160897, 50.897024146505522 ], [ 4.644375867733348, 50.897030716295788 ], [ 4.644368942511528, 50.89717110710351 ], [ 4.64403594994448, 50.897164537293882 ], [ 4.644042876160897, 50.897024146505522 ] ] ] } },
{ "type": "Feature", "properties": { "source": "Ferraris KBR sheet 93 via histcart WMS", "method": "manual raster interpretation", "archetype": "house" }, "geometry": { "type": "Polygon", "coordinates": [ [ [ 4.644202284250256, 50.89682813616232 ], [ 4.644449844442343, 50.896849545456696 ], [ 4.644429156381455, 50.896945220685978 ], [ 4.644181595694396, 50.896923811348579 ], [ 4.644202284250256, 50.89682813616232 ] ] ] } },
{ "type": "Feature", "properties": { "source": "Ferraris KBR sheet 93 via histcart WMS", "method": "manual raster interpretation", "archetype": "barn" }, "geometry": { "type": "Polygon", "coordinates": [ [ [ 4.644797236331859, 50.897328871656519 ], [ 4.645033219992275, 50.897328315213151 ], [ 4.64503378957505, 50.897424880166241 ], [ 4.644797805429348, 50.897425436610725 ], [ 4.644797236331859, 50.897328871656519 ] ] ] } },
{ "type": "Feature", "properties": { "source": "Ferraris KBR sheet 93 via histcart WMS", "method": "manual raster interpretation", "archetype": "farmhouse" }, "geometry": { "type": "Polygon", "coordinates": [ [ [ 4.645102575157042, 50.897319372830864 ], [ 4.645310795988849, 50.897318881334542 ], [ 4.645311469806857, 50.897433003550255 ], [ 4.645103248469002, 50.897433495047743 ], [ 4.645102575157042, 50.897319372830864 ] ] ] } },
{ "type": "Feature", "properties": { "source": "Ferraris KBR sheet 93 via histcart WMS", "method": "manual raster interpretation", "archetype": "house" }, "geometry": { "type": "Polygon", "coordinates": [ [ [ 4.645581071243901, 50.897200315123811 ], [ 4.6457469593158, 50.897190741477999 ], [ 4.645775975211734, 50.89739181587651 ], [ 4.645610086435398, 50.897401389562766 ], [ 4.645581071243901, 50.897200315123811 ] ] ] } },
{ "type": "Feature", "properties": { "source": "Ferraris KBR sheet 93 via histcart WMS", "method": "manual raster interpretation", "archetype": "barn" }, "geometry": { "type": "Polygon", "coordinates": [ [ [ 4.644900285787448, 50.897148664258744 ], [ 4.645177912555755, 50.897148009326564 ], [ 4.645178430626691, 50.897235795651667 ], [ 4.644900803339366, 50.897236450585069 ], [ 4.644900285787448, 50.897148664258744 ] ] ] } },
{ "type": "Feature", "properties": { "source": "Ferraris KBR sheet 93 via histcart WMS", "method": "manual raster interpretation", "archetype": "farmhouse" }, "geometry": { "type": "Polygon", "coordinates": [ [ [ 4.644892077155913, 50.896933604114565 ], [ 4.645155821378171, 50.896932981962976 ], [ 4.645156391208262, 50.897029546926653 ], [ 4.644892646443638, 50.8970301690795 ], [ 4.644892077155913, 50.896933604114565 ] ] ] } },
{ "type": "Feature", "properties": { "source": "Ferraris KBR sheet 93 via histcart WMS", "method": "manual raster interpretation", "archetype": "house" }, "geometry": { "type": "Polygon", "coordinates": [ [ [ 4.645155122044444, 50.89681447041292 ], [ 4.645391103115492, 50.896813913250185 ], [ 4.645391725274686, 50.896919256849188 ], [ 4.645155743674249, 50.896919814013174 ], [ 4.645155122044444, 50.89681447041292 ] ] ] } },
{ "type": "Feature", "properties": { "source": "Ferraris KBR sheet 93 via histcart WMS", "method": "manual raster interpretation", "archetype": "barn" }, "geometry": { "type": "Polygon", "coordinates": [ [ [ 4.642454340541629, 50.896001186720973 ], [ 4.642596687562448, 50.895966247682473 ], [ 4.642697136241531, 50.896129926268138 ], [ 4.642554788799285, 50.896164865426762 ], [ 4.642454340541629, 50.896001186720973 ] ] ] } },
{ "type": "Feature", "properties": { "source": "Ferraris KBR sheet 93 via histcart WMS", "method": "manual raster interpretation", "archetype": "farmhouse" }, "geometry": { "type": "Polygon", "coordinates": [ [ [ 4.643090081478361, 50.896191644809925 ], [ 4.643312178387314, 50.896191124340852 ], [ 4.643312641502415, 50.896270132063059 ], [ 4.643090544219785, 50.896270652533005 ], [ 4.643090081478361, 50.896191644809925 ] ] ] } },
{ "type": "Feature", "properties": { "source": "Ferraris KBR sheet 93 via histcart WMS", "method": "manual raster interpretation", "archetype": "house" }, "geometry": { "type": "Polygon", "coordinates": [ [ [ 4.643172127556187, 50.89502156647351 ], [ 4.643333180227474, 50.895048454299136 ], [ 4.643272950945796, 50.895192749213294 ], [ 4.643111897814115, 50.895165861306161 ], [ 4.643172127556187, 50.89502156647351 ] ] ] } },
{ "type": "Feature", "properties": { "source": "Ferraris KBR sheet 93 via histcart WMS", "method": "manual raster interpretation", "archetype": "barn" }, "geometry": { "type": "Polygon", "coordinates": [ [ [ 4.642129819695257, 50.895001224708693 ], [ 4.642323920817946, 50.895007203671469 ], [ 4.642315817688685, 50.89511242333657 ], [ 4.642121716132113, 50.895106444360579 ], [ 4.642129819695257, 50.895001224708693 ] ] ] } },
{ "type": "Feature", "properties": { "source": "Ferraris KBR sheet 93 via histcart WMS", "method": "manual raster interpretation", "archetype": "farmhouse" }, "geometry": { "type": "Polygon", "coordinates": [ [ [ 4.643048346139533, 50.894173772184402 ], [ 4.643280880962879, 50.894199142374852 ], [ 4.643247845771127, 50.894320255304656 ], [ 4.643015310365906, 50.894294885049682 ], [ 4.643048346139533, 50.894173772184402 ] ] ] } }
]
}
